STARLINK-37803          
1 69319U 26119Z   26160.16670139 -.00138651  00000+0 -73227-3 0  9994
2 69319  97.2834 185.5888 0000840  82.9386   4.5089 15.80887945  2715
GUOWANG TEST OBJECT A   
1 69320U 26120A   26158.46264223  .00009002  00000+0  24096-3 0  9996
2 69320  54.9967  71.5399 0009599 294.3963  65.6063 15.38803685  1198
GUOWANG TEST OBJECT B   
1 69321U 26120B   26155.27875762  .00027005  00000+0  69390-3 0  9998
2 69321  55.0006  85.8667 0009100 296.4175  63.5919 15.39121370   705
GUOWANG TEST OBJECT C   
1 69322U 26120C   26158.00485189  .00017755  00000+0  45417-3 0  9998
2 69322  54.9981  73.5721 0009555 307.3825  52.6333 15.39521743  1123
GUOWANG TEST OBJECT D   
1 69323U 26120D   26155.66644343  .00032137  00000+0  80800-3 0  9993
2 69323  55.0029  84.1123 0008002 301.7889  58.2360 15.39704502   764
QIANFAN-163             
1 69325U 26121A   26158.95635701  .00000032  00000+0  26363-4 0  9993
2 69325  89.0164 301.4499 0019204 214.2612 145.7307 13.60351269   901
QIANFAN-164             
1 69326U 26121B   26160.13236157  .00000123  00000+0  14771-3 0  9999
2 69326  89.0161 301.3300 0018708 211.9455 148.0569 13.60504712  1063
SZ-22 MODULE            
1 69328U 25272C   26159.98164711  .00020338  00000+0  24872-3 0  9997
2 69328  41.4813  11.9816 0007514  18.7303 341.3811 15.59890497  2040
